[{"OBJECT_NAME":"BRO-6","OBJECT_ID":"2022-047AE","EPOCH":"2026-03-09T22:39:29.581632","MEAN_MOTION":15.44429794,"ECCENTRICITY":0.00055745,"INCLINATION":97.3417,"RA_OF_ASC_NODE":158.5545,"ARG_OF_PERICENTER":78.0361,"MEAN_ANOMALY":282.1512,"EPHEMERIS_TYPE":0,"CLASSIFICATION_TYPE":"U","NORAD_CAT_ID":52422,"ELEMENT_SET_NO":999,"REV_AT_EPOCH":21580,"BSTAR":0.00044779472,"MEAN_MOTION_DOT":0.00020658,"MEAN_MOTION_DDOT":0},{"OBJECT_NAME":"KUWAITSAT-1","OBJECT_ID":"2023-001CY","EPOCH":"2026-03-09T18:03:29.196000","MEAN_MOTION":15.45271031,"ECCENTRICITY":0.00102534,"INCLINATION":97.3347,"RA_OF_ASC_NODE":138.265,"ARG_OF_PERICENTER":82.11,"MEAN_ANOMALY":278.1312,"EPHEMERIS_TYPE":0,"CLASSIFICATION_TYPE":"U","NORAD_CAT_ID":55103,"ELEMENT_SET_NO":999,"REV_AT_EPOCH":17721,"BSTAR":0.00049716234,"MEAN_MOTION_DOT":0.00023651,"MEAN_MOTION_DDOT":0}]
